{
  "links" : {
    "next" : "https://api.nasa.gov/neo/rest/v1/feed?start_date=1996-07-23&end_date=1996-07-23&detailed=true&api_key=t0TVs3DtDT2H8Oy2Zy8m2eVrNsAVKAexjcZXUckd",
    "prev" : "https://api.nasa.gov/neo/rest/v1/feed?start_date=1996-07-21&end_date=1996-07-21&detailed=true&api_key=t0TVs3DtDT2H8Oy2Zy8m2eVrNsAVKAexjcZXUckd",
    "self" : "https://api.nasa.gov/neo/rest/v1/feed?start_date=1996-07-22&end_date=1996-07-22&detailed=true&api_key=t0TVs3DtDT2H8Oy2Zy8m2eVrNsAVKAexjcZXUckd"
  },
  "element_count" : 1,
  "near_earth_objects" : {
    "1996-07-22" : [ {
      "links" : {
        "self" : "https://api.nasa.gov/neo/rest/v1/neo/3031184?api_key=t0TVs3DtDT2H8Oy2Zy8m2eVrNsAVKAexjcZXUckd"
      },
      "neo_reference_id" : "3031184",
      "name" : "(2000 EU70)",
      "nasa_jpl_url" : "http://ssd.jpl.nasa.gov/sbdb.cgi?sstr=3031184",
      "absolute_magnitude_h" : 18.8,
      "estimated_diameter" : {
        "kilometers" : {
          "estimated_diameter_min" : 0.4619074603,
          "estimated_diameter_max" : 1.0328564805
        },
        "meters" : {
          "estimated_diameter_min" : 461.9074602816,
          "estimated_diameter_max" : 1032.8564805039
        },
        "miles" : {
          "estimated_diameter_min" : 0.2870159005,
          "estimated_diameter_max" : 0.6417870641
        },
        "feet" : {
          "estimated_diameter_min" : 1515.4444719902,
          "estimated_diameter_max" : 3388.6368554964
        }
      },
      "is_potentially_hazardous_asteroid" : true,
      "close_approach_data" : [ {
        "close_approach_date" : "1996-07-22",
        "epoch_date_close_approach" : 838018800000,
        "relative_velocity" : {
          "kilometers_per_second" : "38.4037681466",
          "kilometers_per_hour" : "138253.5653279361",
          "miles_per_hour" : "85905.3889672389"
        },
        "miss_distance" : {
          "astronomical" : "0.4967567791",
          "lunar" : "193.2383880615",
          "kilometers" : "74313760",
          "miles" : "46176428"
        },
        "orbiting_body" : "Earth"
      } ],
      "orbital_data" : {
        "orbit_id" : "31",
        "orbit_determination_date" : "2017-04-06 09:17:05",
        "orbit_uncertainty" : "0",
        "minimum_orbit_intersection" : ".042963",
        "jupiter_tisserand_invariant" : "3.162",
        "epoch_osculation" : "2458000.5",
        "eccentricity" : ".7654810833492287",
        "semi_major_axis" : "2.220812322511376",
        "inclination" : "13.04192863987863",
        "ascending_node_longitude" : "166.0005785691388",
        "orbital_period" : "1208.832742092628",
        "perihelion_distance" : ".5208224999600511",
        "perihelion_argument" : "253.3471568521506",
        "aphelion_distance" : "3.920802145062701",
        "perihelion_time" : "2457573.125325571706",
        "mean_anomaly" : "127.2755753850988",
        "mean_motion" : ".2978079493253953",
        "equinox" : "J2000"
      }
    } ]
  }
}